STARLINK-37736          
1 69226U 26115R   26167.25002315 -.02500460  00000+0 -37160-1 0  9996
2 69226  97.2842 184.6342 0001106  87.5304 316.8960 15.58880719  4540
STARLINK-37737          
1 69227U 26115S   26167.25002315 -.02486780  00000+0 -34564-1 0  9990
2 69227  97.2849 184.6540 0001492  75.0218  17.2056 15.60600230  4563
STARLINK-37618          
1 69228U 26115T   26167.25002315 -.00006856  00000+0 -12450-3 0  9993
2 69228  97.2841 184.5314 0001696  85.1459  87.8585 15.49187859  4541
STARLINK-37679          
1 69229U 26115U   26167.25002315  .00010973  00000+0  20320-3 0  9992
2 69229  97.2842 184.5381 0000927  91.8792  95.5692 15.49181150  4540
STARLINK-37746          
1 69230U 26115V   26167.25002315 -.00007552  00000+0 -13728-3 0  9999
2 69230  97.2842 184.5187 0000793 143.1446 358.6489 15.49200911  4548
STARLINK-37557          
1 69231U 26115W   26167.25002315  .00023603  00000+0  43460-3 0  9999
2 69231  97.2837 184.4620 0001635  99.8809 263.2234 15.49171220  4549
STARLINK-37745          
1 69232U 26115X   26167.25002315 -.02511559  00000+0 -32965-1 0  9992
2 69232  97.2850 184.6760 0001877  67.2740  76.1219 15.62108960  4543
STARLINK-37739          
1 69233U 26115Y   26167.25002315 -.00002230  00000+0 -39366-4 0  9997
2 69233  97.2843 184.5156 0001379  63.9618  67.1257 15.49175083  4545
STARLINK-37755          
1 69234U 26115Z   26167.24244679  .00125722  00000+0  83022-3 0  9995
2 69234  97.2827 184.6230 0001129 111.2754 248.8632 15.75223330  4535
TJS-24                  
1 69235U 26116A   26167.12386227 -.00000231  00000+0  00000+0 0  9999
2 69235   0.0099  38.7832 0000309 334.1877  26.2880  1.00272531   211
STARLINK-37665          
1 69238U 26117A   26167.23462272  .00204639  00000+0  96288-3 0  9994
2 69238  53.1581 248.4054 0000988  48.0849 312.0258 15.82033364  2826
STARLINK-37558          
1 69239U 26117B   26167.23366792  .00152121  00000+0  72387-3 0  9997
2 69239  53.1582 248.3986 0001668  82.6585 277.4627 15.81947727  2828
STARLINK-37680          
1 69240U 26117C   26167.23223147  .00253747  00000+0  11877-2 0  9997
2 69240  53.1584 248.3880 0001312  73.2853 286.8314 15.82009256  2829
STARLINK-37742          
1 69241U 26117D   26167.23044737  .00195816  00000+0  92348-3 0  9999
2 69241  53.1584 248.3772 0001341  47.3576 312.7561 15.82009414  2825
STARLINK-37718          
1 69242U 26117E   26167.22921313  .00207471  00000+0  97691-3 0  9990
2 69242  53.1585 248.3675 0001036  59.3618 300.7508 15.82009754  2825
STARLINK-37735          
1 69243U 26117F   26167.22910575  .00176140  00000+0  83220-3 0  9990
2 69243  53.1588 248.3663 0001453  62.7037 297.4134 15.82028069  2829
STARLINK-37757          
1 69244U 26117G   26167.22671299  .00177967  00000+0  84187-3 0  9999
2 69244  53.1585 248.3515 0001827  42.6336 317.4829 15.81995648  2826
STARLINK-37767          
1 69245U 26117H   26167.22244702  .00178417  00000+0  84321-3 0  9996
2 69245  53.1583 248.3214 0001000  78.6067 281.5069 15.82014821  2827
STARLINK-35759          
1 69246U 26117J   26167.22176146  .00180319  00000+0  85088-3 0  9998
2 69246  53.1584 248.3169 0001018  75.8906 284.2231 15.82042525  2821
STARLINK-37238          
1 69247U 26117K   26167.21731880  .00252346  00000+0  11801-2 0  9991
2 69247  53.1582 248.2857 0001209  42.3233 317.7883 15.82031546  2823
STARLINK-37412          
1 69248U 26117L   26167.21395163  .00203597  00000+0  95710-3 0  9998
2 69248  53.1583 248.2637 0001136  64.7048 295.4093 15.82056111  2822
STARLINK-37398          
1 69249U 26117M   26167.21758273  .00193876  00000+0  96260-3 0  9993
2 69249  53.1590 248.2871 0001059  76.2801 283.8339 15.80902606  2821
STARLINK-37499          
1 69250U 26117N   26167.27541082  .00153541  00000+0  72786-3 0  9991
2 69250  53.1581 247.9345 0001263  55.5013 304.6129 15.82025283  2836
STARLINK-37489          
1 69251U 26117P   26167.27364626  .00376844  00000+0  17316-2 0  9999
2 69251  53.1582 247.9227 0001383 105.0054 255.1122 15.82077549  2831
STARLINK-37434          
1 69252U 26117Q   26167.27067858  .00193929  00000+0  91286-3 0  9997
2 69252  53.1576 247.9016 0001315  39.1354 320.9764 15.82055256  2830
STARLINK-37368          
1 69253U 26117R   26167.26393473  .00271016  00000+0  12642-2 0  9994
2 69253  53.1577 247.8561 0001610  31.5236 328.5883 15.82036192  2833
STARLINK-37517          
1 69254U 26117S   26167.26261607  .00187302  00000+0  88297-3 0  9992
2 69254  53.1575 247.8473 0000845  42.7213 317.3876 15.82042789  2839
STARLINK-37378          
1 69255U 26117T   26167.26228373  .00199452  00000+0  93831-3 0  9995
2 69255  53.1578 247.8446 0001389  34.0935 326.0177 15.82051939  2830
STARLINK-37396          
1 69256U 26117U   26167.25983421  .00243831  00000+0  11420-2 0  9991
2 69256  53.1572 247.8268 0000937  38.8485 321.2606 15.82021883  2836
