OBJECT_NAME,OBJECT_ID,EPOCH,MEAN_MOTION,ECCENTRICITY,INCLINATION,RA_OF_ASC_NODE,ARG_OF_PERICENTER,MEAN_ANOMALY,EPHEMERIS_TYPE,CLASSIFICATION_TYPE,NORAD_CAT_ID,ELEMENT_SET_NO,REV_AT_EPOCH,BSTAR,MEAN_MOTION_DOT,MEAN_MOTION_DDOT
STARLINK-37736,2026-115R,2026-06-16T06:00:02.000160,15.58880719,.00011065,97.2842,184.6342,87.5304,316.8960,0,U,69226,999,454,-.37160373E-1,-.250046E-1,0
STARLINK-37737,2026-115S,2026-06-16T06:00:02.000160,15.60600230,.00014927,97.2849,184.6540,75.0218,17.2056,0,U,69227,999,456,-.34564089E-1,-.248678E-1,0
STARLINK-37618,2026-115T,2026-06-16T06:00:02.000160,15.49187859,.00016962,97.2841,184.5314,85.1459,87.8585,0,U,69228,999,454,-.12450121E-3,-.6856E-4,0
STARLINK-37679,2026-115U,2026-06-16T06:00:02.000160,15.49181150,.00009272,97.2842,184.5381,91.8792,95.5692,0,U,69229,999,454,.20320358E-3,.10973E-3,0
STARLINK-37746,2026-115V,2026-06-16T06:00:02.000160,15.49200911,.00007937,97.2842,184.5187,143.1446,358.6489,0,U,69230,999,454,-.13727526E-3,-.7552E-4,0
STARLINK-37557,2026-115W,2026-06-16T06:00:02.000160,15.49171220,.00016358,97.2837,184.4620,99.8809,263.2234,0,U,69231,999,454,.43459941E-3,.23603E-3,0
STARLINK-37745,2026-115X,2026-06-16T06:00:02.000160,15.62108960,.00018773,97.2850,184.6760,67.2740,76.1219,0,U,69232,999,454,-.32964699E-1,-.2511559E-1,0
STARLINK-37739,2026-115Y,2026-06-16T06:00:02.000160,15.49175083,.00013791,97.2843,184.5156,63.9618,67.1257,0,U,69233,999,454,-.39365716E-4,-.223E-4,0
STARLINK-37755,2026-115Z,2026-06-16T05:49:07.402656,15.75223330,.00011294,97.2827,184.6230,111.2754,248.8632,0,U,69234,999,453,.83022199E-3,.125722E-2,0
TJS-24,2026-116A,2026-06-16T02:58:21.700128,1.00272531,.00003097,0.0099,38.7832,334.1877,26.2880,0,U,69235,999,21,0,-.231E-5,0
STARLINK-37665,2026-117A,2026-06-16T05:37:51.403008,15.82033364,.00009886,53.1581,248.4054,48.0849,312.0258,0,U,69238,999,282,.96287677E-3,.204639E-2,0
STARLINK-37558,2026-117B,2026-06-16T05:36:28.908288,15.81947727,.00016689,53.1582,248.3986,82.6585,277.4627,0,U,69239,999,282,.72386734E-3,.152121E-2,0
STARLINK-37680,2026-117C,2026-06-16T05:34:24.799008,15.82009256,.00013123,53.1584,248.3880,73.2853,286.8314,0,U,69240,999,282,.11876787E-2,.253747E-2,0
STARLINK-37742,2026-117D,2026-06-16T05:31:50.652768,15.82009414,.00013414,53.1584,248.3772,47.3576,312.7561,0,U,69241,999,282,.92348021E-3,.195816E-2,0
STARLINK-37718,2026-117E,2026-06-16T05:30:04.014432,15.82009754,.00010361,53.1585,248.3675,59.3618,300.7508,0,U,69242,999,282,.97690864E-3,.207471E-2,0
STARLINK-37735,2026-117F,2026-06-16T05:29:54.736800,15.82028069,.00014539,53.1588,248.3663,62.7037,297.4134,0,U,69243,999,282,.83219704E-3,.17614E-2,0
STARLINK-37757,2026-117G,2026-06-16T05:26:28.002336,15.81995648,.00018273,53.1585,248.3515,42.6336,317.4829,0,U,69244,999,282,.84187077E-3,.177967E-2,0
STARLINK-37767,2026-117H,2026-06-16T05:20:19.422528,15.82014821,.00010008,53.1583,248.3214,78.6067,281.5069,0,U,69245,999,282,.8432114E-3,.178417E-2,0
STARLINK-35759,2026-117J,2026-06-16T05:19:20.190144,15.82042525,.00010181,53.1584,248.3169,75.8906,284.2231,0,U,69246,999,282,.85087997E-3,.180319E-2,0
STARLINK-37238,2026-117K,2026-06-16T05:12:56.344320,15.82031546,.00012098,53.1582,248.2857,42.3233,317.7883,0,U,69247,999,282,.11801069E-2,.252346E-2,0
STARLINK-37412,2026-117L,2026-06-16T05:08:05.420832,15.82056111,.00011363,53.1583,248.2637,64.7048,295.4093,0,U,69248,999,282,.95709523E-3,.203597E-2,0
STARLINK-37398,2026-117M,2026-06-16T05:13:19.147872,15.80902606,.00010594,53.1590,248.2871,76.2801,283.8339,0,U,69249,999,282,.96259839E-3,.193876E-2,0
STARLINK-37499,2026-117N,2026-06-16T06:36:35.494848,15.82025283,.00012633,53.1581,247.9345,55.5013,304.6129,0,U,69250,999,283,.72785597E-3,.153541E-2,0
STARLINK-37489,2026-117P,2026-06-16T06:34:03.036864,15.82077549,.00013835,53.1582,247.9227,105.0054,255.1122,0,U,69251,999,283,.17316147E-2,.376844E-2,0
STARLINK-37434,2026-117Q,2026-06-16T06:29:46.629312,15.82055256,.00013159,53.1576,247.9016,39.1354,320.9764,0,U,69252,999,283,.91286242E-3,.193929E-2,0
STARLINK-37368,2026-117R,2026-06-16T06:20:03.960672,15.82036192,.00016103,53.1577,247.8561,31.5236,328.5883,0,U,69253,999,283,.1264153E-2,.271016E-2,0
STARLINK-37517,2026-117S,2026-06-16T06:18:10.028448,15.82042789,.00008454,53.1575,247.8473,42.7213,317.3876,0,U,69254,999,283,.88297077E-3,.187302E-2,0
STARLINK-37378,2026-117T,2026-06-16T06:17:41.314272,15.82051939,.00013898,53.1578,247.8446,34.0935,326.0177,0,U,69255,999,283,.93830549E-3,.199452E-2,0
STARLINK-37396,2026-117U,2026-06-16T06:14:09.675744,15.82021883,.00009379,53.1572,247.8268,38.8485,321.2606,0,U,69256,999,283,.11420372E-2,.243831E-2,0
